{"type": "FeatureCollection", "features": [{"type": "Feature", "geometry": {"type": "Point", "coordinates": [-71.83243554699999, -13.96988671899993]}, "properties": {"ubigeo": "081002", "dep": "Cusco", "prov": "Paruro", "dist": "Accha", "pob_total_proyectada": 2980, "pob_dispersa": 1056, "pob_urbana_estimada": 1924, "point_source": "capital_distrital"}}, {"type": "Feature", "geometry": {"type": "Point", "coordinates": [-71.68262487099997, -13.919094800999972]}, "properties": {"ubigeo": "080201", "dep": "Cusco", "prov": "Acomayo", "dist": "Acomayo", "pob_total_proyectada": 4458, "pob_dispersa": 1168, "pob_urbana_estimada": 3290, "point_source": "capital_distrital"}}, {"type": "Feature", "geometry": {"type": "Point", "coordinates": [-71.49347656299994, -14.05897656299993]}, "properties": {"ubigeo": "080202", "dep": "Cusco", "prov": "Acomayo", "dist": "Acopia", "pob_total_proyectada": 3167, "pob_dispersa": 494, "pob_urbana_estimada": 2673, "point_source": "capital_distrital"}}, {"type": "Feature", "geometry": {"type": "Point", "coordinates": [-71.73880664099994, -13.949824218999936]}, "properties": {"ubigeo": "080203", "dep": "Cusco", "prov": "Acomayo", "dist": "Acos", "pob_total_proyectada": 2314, "pob_dispersa": 668, "pob_urbana_estimada": 1646, "point_source": "capital_distrital"}}, {"type": "Feature", "geometry": {"type": "Point", "coordinates": [-73.69770898399997, -3.8864179689999787]}, "properties": {"ubigeo": "160102", "dep": "Loreto", "prov": "Maynas", "dist": "Alto Nanay", "pob_total_proyectada": 3521, "pob_dispersa": 809, "pob_urbana_estimada": 2712, "point_source": "capital_distrital"}}, {"type": "Feature", "geometry": {"type": "Point", "coordinates": [-71.25163085899999, -14.77841015599995]}, "properties": {"ubigeo": "080808", "dep": "Cusco", "prov": "Espinar", "dist": "Alto Pichigua", "pob_total_proyectada": 1816, "pob_dispersa": 1563, "pob_urbana_estimada": 253, "point_source": "capital_distrital"}}, {"type": "Feature", "geometry": {"type": "Point", "coordinates": [-74.09261618799997, -6.024033208999981]}, "properties": {"ubigeo": "160502", "dep": "Loreto", "prov": "Requena", "dist": "Alto Tapiche", "pob_total_proyectada": 1465, "pob_dispersa": 845, "pob_urbana_estimada": 620, "point_source": "capital_distrital"}}, {"type": "Feature", "geometry": {"type": "Point", "coordinates": [-81.01598880699999, -4.882815588999961]}, "properties": {"ubigeo": "200502", "dep": "Piura", "prov": "Paita", "dist": "Amotape", "pob_total_proyectada": 2627, "pob_dispersa": 75, "pob_urbana_estimada": 2552, "point_source": "capital_distrital"}}, {"type": "Feature", "geometry": {"type": "Point", "coordinates": [-72.32041637, -13.45474048]}, "properties": {"ubigeo": "080302", "dep": "Cusco", "prov": "Anta", "dist": "Ancahuasi", "pob_total_proyectada": 7962, "pob_dispersa": 1542, "pob_urbana_estimada": 6420, "point_source": "centroide_distrito"}}, {"type": "Feature", "geometry": {"type": "Point", "coordinates": [-71.67837890599998, -13.674492187999931]}, "properties": {"ubigeo": "081202", "dep": "Cusco", "prov": "Quispicanchi", "dist": "Andahuaylillas", "pob_total_proyectada": 7761, "pob_dispersa": 287, "pob_urbana_estimada": 7474, "point_source": "capital_distrital"}}, {"type": "Feature", "geometry": {"type": "Point", "coordinates": [-76.63961612, -3.37546153]}, "properties": {"ubigeo": "160706", "dep": "Loreto", "prov": "Datem del Marañon", "dist": "Andoas", "pob_total_proyectada": 17313, "pob_dispersa": 4467, "pob_urbana_estimada": 12846, "point_source": "centroide_distrito"}}, {"type": "Feature", "geometry": {"type": "Point", "coordinates": [-72.16660344, -13.48474036]}, "properties": {"ubigeo": "080301", "dep": "Cusco", "prov": "Anta", "dist": "Anta", "pob_total_proyectada": 27974, "pob_dispersa": 1756, "pob_urbana_estimada": 26218, "point_source": "centroide_distrito"}}, {"type": "Feature", "geometry": {"type": "Point", "coordinates": [-81.02775913199997, -4.88325666399993]}, "properties": {"ubigeo": "200503", "dep": "Piura", "prov": "Paita", "dist": "Arenal", "pob_total_proyectada": 1290, "pob_dispersa": 205, "pob_urbana_estimada": 1085, "point_source": "capital_distrital"}}, {"type": "Feature", "geometry": {"type": "Point", "coordinates": [-79.71580468699995, -4.639982421999946]}, "properties": {"ubigeo": "200201", "dep": "Piura", "prov": "Ayabaca", "dist": "Ayabaca", "pob_total_proyectada": 30661, "pob_dispersa": 11695, "pob_urbana_estimada": 18966, "point_source": "capital_distrital"}}, {"type": "Feature", "geometry": {"type": "Point", "coordinates": [-76.55998967399995, -5.831785577999938]}, "properties": {"ubigeo": "160202", "dep": "Loreto", "prov": "Alto Amazonas", "dist": "Balsapuerto", "pob_total_proyectada": 17976, "pob_dispersa": 5397, "pob_urbana_estimada": 12579, "point_source": "capital_distrital"}}, {"type": "Feature", "geometry": {"type": "Point", "coordinates": [-77.24381364, -4.96524429]}, "properties": {"ubigeo": "160701", "dep": "Loreto", "prov": "Datem del Marañon", "dist": "Barranca", "pob_total_proyectada": 17132, "pob_dispersa": 2166, "pob_urbana_estimada": 14966, "point_source": "centroide_distrito"}}, {"type": "Feature", "geometry": {"type": "Point", "coordinates": [-73.26370185, -3.85209247]}, "properties": {"ubigeo": "160112", "dep": "Loreto", "prov": "Maynas", "dist": "Belen", "pob_total_proyectada": 71483, "pob_dispersa": 2500, "pob_urbana_estimada": 68983, "point_source": "centroide_distrito"}}, {"type": "Feature", "geometry": {"type": "Point", "coordinates": [-80.67748173899997, -4.891059182999925]}, "properties": {"ubigeo": "200602", "dep": "Piura", "prov": "Sullana", "dist": "Bellavista", "pob_total_proyectada": 39854, "pob_dispersa": 0, "pob_urbana_estimada": 39854, "point_source": "capital_distrital"}}, {"type": "Feature", "geometry": {"type": "Point", "coordinates": [-80.75430663799995, -5.439992186999973]}, "properties": {"ubigeo": "200802", "dep": "Piura", "prov": "Sechura", "dist": "Bellavista de la Union", "pob_total_proyectada": 5801, "pob_dispersa": 169, "pob_urbana_estimada": 5632, "point_source": "capital_distrital"}}, {"type": "Feature", "geometry": {"type": "Point", "coordinates": [-80.74254529299998, -5.461013436999963]}, "properties": {"ubigeo": "200803", "dep": "Piura", "prov": "Sechura", "dist": "Bernal", "pob_total_proyectada": 8457, "pob_dispersa": 427, "pob_urbana_estimada": 8030, "point_source": "capital_distrital"}}, {"type": "Feature", "geometry": {"type": "Point", "coordinates": [-79.96814452999996, -5.2671972659999255]}, "properties": {"ubigeo": "200402", "dep": "Piura", "prov": "Morropon", "dist": "Buenos Aires", "pob_total_proyectada": 10831, "pob_dispersa": 647, "pob_urbana_estimada": 10184, "point_source": "capital_distrital"}}, {"type": "Feature", "geometry": {"type": "Point", "coordinates": [-72.04463959, -13.46590523]}, "properties": {"ubigeo": "080303", "dep": "Cusco", "prov": "Anta", "dist": "Cachimayo", "pob_total_proyectada": 2935, "pob_dispersa": 533, "pob_urbana_estimada": 2402, "point_source": "centroide_distrito"}}, {"type": "Feature", "geometry": {"type": "Point", "coordinates": [-76.91164765, -5.29665391]}, "properties": {"ubigeo": "160702", "dep": "Loreto", "prov": "Datem del Marañon", "dist": "Cahuapanas", "pob_total_proyectada": 8202, "pob_dispersa": 2283, "pob_urbana_estimada": 5919, "point_source": "centroide_distrito"}}, {"type": "Feature", "geometry": {"type": "Point", "coordinates": [-71.69633984399997, -13.597103515999947]}, "properties": {"ubigeo": "081102", "dep": "Cusco", "prov": "Paucartambo", "dist": "Caicay", "pob_total_proyectada": 3239, "pob_dispersa": 1022, "pob_urbana_estimada": 2217, "point_source": "capital_distrital"}}, {"type": "Feature", "geometry": {"type": "Point", "coordinates": [-71.97357584, -13.28921654]}, "properties": {"ubigeo": "080401", "dep": "Cusco", "prov": "Calca", "dist": "Calca", "pob_total_proyectada": 24283, "pob_dispersa": 2239, "pob_urbana_estimada": 22044, "point_source": "centroide_distrito"}}, {"type": "Feature", "geometry": {"type": "Point", "coordinates": [-70.79885739, -13.36482136]}, "properties": {"ubigeo": "081203", "dep": "Cusco", "prov": "Quispicanchi", "dist": "Camanti", "pob_total_proyectada": 2743, "pob_dispersa": 285, "pob_urbana_estimada": 2458, "point_source": "centroide_distrito"}}, {"type": "Feature", "geometry": {"type": "Point", "coordinates": [-79.60528536899994, -5.375739381999949]}, "properties": {"ubigeo": "200302", "dep": "Piura", "prov": "Huancabamba", "dist": "Canchaque", "pob_total_proyectada": 7083, "pob_dispersa": 3541, "pob_urbana_estimada": 3542, "point_source": "capital_distrital"}}, {"type": "Feature", "geometry": {"type": "Point", "coordinates": [-71.99945179899998, -14.008798827999954]}, "properties": {"ubigeo": "080702", "dep": "Cusco", "prov": "Chumbivilcas", "dist": "Capacmarca", "pob_total_proyectada": 4025, "pob_dispersa": 1649, "pob_urbana_estimada": 2376, "point_source": "capital_distrital"}}, {"type": "Feature", "geometry": {"type": "Point", "coordinates": [-74.15662499999996, -5.403810546999978]}, "properties": {"ubigeo": "160503", "dep": "Loreto", "prov": "Requena", "dist": "Capelo", "pob_total_proyectada": 1865, "pob_dispersa": 465, "pob_urbana_estimada": 1400, "point_source": "capital_distrital"}}, {"type": "Feature", "geometry": {"type": "Point", "coordinates": [-80.62896495499996, -5.224524802999952]}, "properties": {"ubigeo": "200104", "dep": "Piura", "prov": "Piura", "dist": "Castilla", "pob_total_proyectada": 210227, "pob_dispersa": 468, "pob_urbana_estimada": 209759, "point_source": "capital_distrital"}}, {"type": "Feature", "geometry": {"type": "Point", "coordinates": [-80.67489951599998, -5.267960322999954]}, "properties": {"ubigeo": "200105", "dep": "Piura", "prov": "Piura", "dist": "Catacaos", "pob_total_proyectada": 85543, "pob_dispersa": 224, "pob_urbana_estimada": 85319, "point_source": "capital_distrital"}}, {"type": "Feature", "geometry": {"type": "Point", "coordinates": [-72.07973744799995, -13.855916664999938]}, "properties": {"ubigeo": "081003", "dep": "Cusco", "prov": "Paruro", "dist": "Ccapi", "pob_total_proyectada": 2975, "pob_dispersa": 1203, "pob_urbana_estimada": 1772, "point_source": "capital_distrital"}}, {"type": "Feature", "geometry": {"type": "Point", "coordinates": [-71.39937695299994, -13.594121093999945]}, "properties": {"ubigeo": "081204", "dep": "Cusco", "prov": "Quispicanchi", "dist": "Ccarhuayo", "pob_total_proyectada": 3217, "pob_dispersa": 2058, "pob_urbana_estimada": 1159, "point_source": "capital_distrital"}}, {"type": "Feature", "geometry": {"type": "Point", "coordinates": [-71.56112890599996, -13.60481445299996]}, "properties": {"ubigeo": "081205", "dep": "Cusco", "prov": "Quispicanchi", "dist": "Ccatca", "pob_total_proyectada": 15214, "pob_dispersa": 4344, "pob_urbana_estimada": 10870, "point_source": "capital_distrital"}}, {"type": "Feature", "geometry": {"type": "Point", "coordinates": [-72.05890667799997, -13.584527729999934]}, "properties": {"ubigeo": "080102", "dep": "Cusco", "prov": "Cusco", "dist": "Ccorca", "pob_total_proyectada": 2417, "pob_dispersa": 438, "pob_urbana_estimada": 1979, "point_source": "capital_distrital"}}, {"type": "Feature", "geometry": {"type": "Point", "coordinates": [-79.79470591899997, -5.042294855999955]}, "properties": {"ubigeo": "200403", "dep": "Piura", "prov": "Morropon", "dist": "Chalaco", "pob_total_proyectada": 6900, "pob_dispersa": 2399, "pob_urbana_estimada": 4501, "point_source": "capital_distrital"}}, {"type": "Feature", "geometry": {"type": "Point", "coordinates": [-71.77361864, -13.12087986]}, "properties": {"ubigeo": "081103", "dep": "Cusco", "prov": "Paucartambo", "dist": "Challabamba", "pob_total_proyectada": 9324, "pob_dispersa": 4385, "pob_urbana_estimada": 4939, "point_source": "centroide_distrito"}}, {"type": "Feature", "geometry": {"type": "Point", "coordinates": [-71.85244921899994, -14.302140624999936]}, "properties": {"ubigeo": "080703", "dep": "Cusco", "prov": "Chumbivilcas", "dist": "Chamaca", "pob_total_proyectada": 6255, "pob_dispersa": 3180, "pob_urbana_estimada": 3075, "point_source": "capital_distrital"}}, {"type": "Feature", "geometry": {"type": "Point", "coordinates": [-71.45293554699998, -14.02534570299997]}, "properties": {"ubigeo": "080602", "dep": "Cusco", "prov": "Canchis", "dist": "Checacupe", "pob_total_proyectada": 5268, "pob_dispersa": 1611, "pob_urbana_estimada": 3657, "point_source": "capital_distrital"}}, {"type": "Feature", "geometry": {"type": "Point", "coordinates": [-71.39460297399995, -14.47274652799996]}, "properties": {"ubigeo": "080502", "dep": "Cusco", "prov": "Canas", "dist": "Checca", "pob_total_proyectada": 5400, "pob_dispersa": 4194, "pob_urbana_estimada": 1206, "point_source": "capital_distrital"}}, {"type": "Feature", "geometry": {"type": "Point", "coordinates": [-72.23341084799995, -13.629745217999982]}, "properties": {"ubigeo": "080304", "dep": "Cusco", "prov": "Anta", "dist": "Chinchaypujio", "pob_total_proyectada": 4227, "pob_dispersa": 2125, "pob_urbana_estimada": 2102, "point_source": "capital_distrital"}}, {"type": "Feature", "geometry": {"type": "Point", "coordinates": [-72.04390463, -13.40982079]}, "properties": {"ubigeo": "081302", "dep": "Cusco", "prov": "Urubamba", "dist": "Chinchero", "pob_total_proyectada": 13258, "pob_dispersa": 1614, "pob_urbana_estimada": 11644, "point_source": "centroide_distrito"}}, {"type": "Feature", "geometry": {"type": "Point", "coordinates": [-80.16544077999998, -5.0963043799999355]}, "properties": {"ubigeo": "200401", "dep": "Piura", "prov": "Morropon", "dist": "Chulucanas", "pob_total_proyectada": 93656, "pob_dispersa": 2039, "pob_urbana_estimada": 91617, "point_source": "capital_distrital"}}, {"type": "Feature", "geometry": {"type": "Point", "coordinates": [-81.05928319899994, -4.909867186999975]}, "properties": {"ubigeo": "200504", "dep": "Piura", "prov": "Paita", "dist": "Colan", "pob_total_proyectada": 18169, "pob_dispersa": 82, "pob_urbana_estimada": 18087, "point_source": "capital_distrital"}}, {"type": "Feature", "geometry": {"type": "Point", "coordinates": [-71.80332226599995, -13.850308593999955]}, "properties": {"ubigeo": "081004", "dep": "Cusco", "prov": "Paruro", "dist": "Colcha", "pob_total_proyectada": 874, "pob_dispersa": 423, "pob_urbana_estimada": 451, "point_source": "capital_distrital"}}, {"type": "Feature", "geometry": {"type": "Point", "coordinates": [-72.04048632799999, -14.28393945299996]}, "properties": {"ubigeo": "080704", "dep": "Cusco", "prov": "Chumbivilcas", "dist": "Colquemarca", "pob_total_proyectada": 6787, "pob_dispersa": 3195, "pob_urbana_estimada": 3592, "point_source": "capital_distrital"}}, {"type": "Feature", "geometry": {"type": "Point", "coordinates": [-71.63719103, -13.42467386]}, "properties": {"ubigeo": "081104", "dep": "Cusco", "prov": "Paucartambo", "dist": "Colquepata", "pob_total_proyectada": 8776, "pob_dispersa": 2641, "pob_urbana_estimada": 6135, "point_source": "centroide_distrito"}}, {"type": "Feature", "geometry": {"type": "Point", "coordinates": [-71.42921093699994, -14.100880858999972]}, "properties": {"ubigeo": "080603", "dep": "Cusco", "prov": "Canchis", "dist": "Combapata", "pob_total_proyectada": 4961, "pob_dispersa": 1485, "pob_urbana_estimada": 3476, "point_source": "capital_distrital"}}, {"type": "Feature", "geometry": {"type": "Point", "coordinates": [-71.05782378, -15.29150342]}, "properties": {"ubigeo": "080802", "dep": "Cusco", "prov": "Espinar", "dist": "Condoroma", "pob_total_proyectada": 788, "pob_dispersa": 376, "pob_urbana_estimada": 412, "point_source": "centroide_distrito"}}, {"type": "Feature", "geometry": {"type": "Point", "coordinates": [-75.00681498999995, -7.350286023999956]}, "properties": {"ubigeo": "160601", "dep": "Loreto", "prov": "Ucayali", "dist": "Contamana", "pob_total_proyectada": 30142, "pob_dispersa": 2803, "pob_urbana_estimada": 27339, "point_source": "capital_distrital"}}, {"type": "Feature", "geometry": {"type": "Point", "coordinates": [-71.53237185699999, -14.799865525999962]}, "properties": {"ubigeo": "080803", "dep": "Cusco", "prov": "Espinar", "dist": "Coporaque", "pob_total_proyectada": 7663, "pob_dispersa": 7952, "pob_urbana_estimada": 0, "point_source": "capital_distrital"}}, {"type": "Feature", "geometry": {"type": "Point", "coordinates": [-71.91905637, -13.39826967]}, "properties": {"ubigeo": "080402", "dep": "Cusco", "prov": "Calca", "dist": "Coya", "pob_total_proyectada": 3588, "pob_dispersa": 384, "pob_urbana_estimada": 3204, "point_source": "centroide_distrito"}}, {"type": "Feature", "geometry": {"type": "Point", "coordinates": [-80.74035353099998, -5.494287157999963]}, "properties": {"ubigeo": "200804", "dep": "Piura", "prov": "Sechura", "dist": "Cristo Nos Valga", "pob_total_proyectada": 5703, "pob_dispersa": 182, "pob_urbana_estimada": 5521, "point_source": "capital_distrital"}}, {"type": "Feature", "geometry": {"type": "Point", "coordinates": [-80.66431420899994, -5.325721942999962]}, "properties": {"ubigeo": "200107", "dep": "Piura", "prov": "Piura", "dist": "Cura Mori", "pob_total_proyectada": 20903, "pob_dispersa": 268, "pob_urbana_estimada": 20635, "point_source": "capital_distrital"}}, {"type": "Feature", "geometry": {"type": "Point", "coordinates": [-71.97685513399995, -13.516231473999937]}, "properties": {"ubigeo": "080101", "dep": "Cusco", "prov": "Cusco", "dist": "Cusco", "pob_total_proyectada": 120026, "pob_dispersa": 1052, "pob_urbana_estimada": 118974, "point_source": "capital_distrital"}}, {"type": "Feature", "geometry": {"type": "Point", "coordinates": [-71.50089272799994, -13.90841809799997]}, "properties": {"ubigeo": "081206", "dep": "Cusco", "prov": "Quispicanchi", "dist": "Cusipata", "pob_total_proyectada": 4616, "pob_dispersa": 1328, "pob_urbana_estimada": 3288, "point_source": "capital_distrital"}}, {"type": "Feature", "geometry": {"type": "Point", "coordinates": [-72.57747460899998, -12.769199218999972]}, "properties": {"ubigeo": "080902", "dep": "Cusco", "prov": "La Convencion", "dist": "Echarate", "pob_total_proyectada": 16790, "pob_dispersa": 13288, "pob_urbana_estimada": 3502, "point_source": "capital_distrital"}}, {"type": "Feature", "geometry": {"type": "Point", "coordinates": [-81.21529977799997, -4.2701200869999525]}, "properties": {"ubigeo": "200702", "dep": "Piura", "prov": "Talara", "dist": "El Alto", "pob_total_proyectada": 9546, "pob_dispersa": 0, "pob_urbana_estimada": 9546, "point_source": "capital_distrital"}}, {"type": "Feature", "geometry": {"type": "Point", "coordinates": [-79.43400090499995, -5.15208927499998]}, "properties": {"ubigeo": "200303", "dep": "Piura", "prov": "Huancabamba", "dist": "El Carmen de la Frontera", "pob_total_proyectada": 11435, "pob_dispersa": 2061, "pob_urbana_estimada": 9374, "point_source": "capital_distrital"}}, {"type": "Feature", "geometry": {"type": "Point", "coordinates": [-80.67924023199998, -5.412499999999966]}, "properties": {"ubigeo": "200108", "dep": "Piura", "prov": "Piura", "dist": "El Tallan", "pob_total_proyectada": 5681, "pob_dispersa": 69, "pob_urbana_estimada": 5612, "point_source": "capital_distrital"}}, {"type": "Feature", "geometry": {"type": "Point", "coordinates": [-74.28569726599994, -5.79365820299995]}, "properties": {"ubigeo": "160504", "dep": "Loreto", "prov": "Requena", "dist": "Emilio San Martin", "pob_total_proyectada": 6676, "pob_dispersa": 1457, "pob_urbana_estimada": 5219, "point_source": "capital_distrital"}}, {"type": "Feature", "geometry": {"type": "Point", "coordinates": [-71.41216015599997, -14.79272070299993]}, "properties": {"ubigeo": "080801", "dep": "Cusco", "prov": "Espinar", "dist": "Espinar", "pob_total_proyectada": 42506, "pob_dispersa": 3280, "pob_urbana_estimada": 39226, "point_source": "capital_distrital"}}, {"type": "Feature", "geometry": {"type": "Point", "coordinates": [-73.15369921899998, -4.007072265999966]}, "properties": {"ubigeo": "160103", "dep": "Loreto", "prov": "Maynas", "dist": "Fernando Lores", "pob_total_proyectada": 12148, "pob_dispersa": 4855, "pob_urbana_estimada": 7293, "point_source": "capital_distrital"}}, {"type": "Feature", "geometry": {"type": "Point", "coordinates": [-79.94374369399998, -4.935661060999962]}, "properties": {"ubigeo": "200202", "dep": "Piura", "prov": "Ayabaca", "dist": "Frias", "pob_total_proyectada": 20812, "pob_dispersa": 6876, "pob_urbana_estimada": 13936, "point_source": "capital_distrital"}}, {"type": "Feature", "geometry": {"type": "Point", "coordinates": [-79.44869140199995, -5.238989868999965]}, "properties": {"ubigeo": "200301", "dep": "Piura", "prov": "Huancabamba", "dist": "Huancabamba", "pob_total_proyectada": 29214, "pob_dispersa": 1935, "pob_urbana_estimada": 27279, "point_source": "capital_distrital"}}, {"type": "Feature", "geometry": {"type": "Point", "coordinates": [-71.65409765599998, -13.504917968999962]}, "properties": {"ubigeo": "081105", "dep": "Cusco", "prov": "Paucartambo", "dist": "Huancarani", "pob_total_proyectada": 8079, "pob_dispersa": 856, "pob_urbana_estimada": 7223, "point_source": "capital_distrital"}}, {"type": "Feature", "geometry": {"type": "Point", "coordinates": [-72.01621830299996, -13.68298148499997]}, "properties": {"ubigeo": "081005", "dep": "Cusco", "prov": "Paruro", "dist": "Huanoquite", "pob_total_proyectada": 4987, "pob_dispersa": 1380, "pob_urbana_estimada": 3607, "point_source": "capital_distrital"}}, {"type": "Feature", "geometry": {"type": "Point", "coordinates": [-79.52439527699994, -5.568497777999937]}, "properties": {"ubigeo": "200304", "dep": "Piura", "prov": "Huancabamba", "dist": "Huarmaca", "pob_total_proyectada": 36699, "pob_dispersa": 14131, "pob_urbana_estimada": 22568, "point_source": "capital_distrital"}}, {"type": "Feature", "geometry": {"type": "Point", "coordinates": [-71.64106835899997, -13.689744140999949]}, "properties": {"ubigeo": "081207", "dep": "Cusco", "prov": "Quispicanchi", "dist": "Huaro", "pob_total_proyectada": 5107, "pob_dispersa": 1205, "pob_urbana_estimada": 3902, "point_source": "capital_distrital"}}, {"type": "Feature", "geometry": {"type": "Point", "coordinates": [-72.27750306, -13.37654792]}, "properties": {"ubigeo": "080305", "dep": "Cusco", "prov": "Anta", "dist": "Huarocondo", "pob_total_proyectada": 4370, "pob_dispersa": 1410, "pob_urbana_estimada": 2960, "point_source": "centroide_distrito"}}, {"type": "Feature", "geometry": {"type": "Point", "coordinates": [-72.03862492, -13.32485023]}, "properties": {"ubigeo": "081303", "dep": "Cusco", "prov": "Urubamba", "dist": "Huayllabamba", "pob_total_proyectada": 6691, "pob_dispersa": 943, "pob_urbana_estimada": 5748, "point_source": "centroide_distrito"}}, {"type": "Feature", "geometry": {"type": "Point", "coordinates": [-72.49196631, -13.05298917]}, "properties": {"ubigeo": "080903", "dep": "Cusco", "prov": "La Convencion", "dist": "Huayopata", "pob_total_proyectada": 5358, "pob_dispersa": 2092, "pob_urbana_estimada": 3266, "point_source": "centroide_distrito"}}, {"type": "Feature", "geometry": {"type": "Point", "coordinates": [-80.87611860599998, -4.844130277999966]}, "properties": {"ubigeo": "200603", "dep": "Piura", "prov": "Sullana", "dist": "Ignacio Escudero", "pob_total_proyectada": 22854, "pob_dispersa": 155, "pob_urbana_estimada": 22699, "point_source": "capital_distrital"}}, {"type": "Feature", "geometry": {"type": "Point", "coordinates": [-75.26522147699995, -7.11903747599996]}, "properties": {"ubigeo": "160602", "dep": "Loreto", "prov": "Ucayali", "dist": "Inahuaya", "pob_total_proyectada": 1597, "pob_dispersa": 319, "pob_urbana_estimada": 1278, "point_source": "capital_distrital"}}, {"type": "Feature", "geometry": {"type": "Point", "coordinates": [-73.04180468699997, -3.4979199219999373]}, "properties": {"ubigeo": "160104", "dep": "Loreto", "prov": "Maynas", "dist": "Indiana", "pob_total_proyectada": 11246, "pob_dispersa": 2686, "pob_urbana_estimada": 8560, "point_source": "capital_distrital"}}, {"type": "Feature", "geometry": {"type": "Point", "coordinates": [-73.20834433, -13.28656759]}, "properties": {"ubigeo": "080911", "dep": "Cusco", "prov": "La Convencion", "dist": "Inkawasi", "pob_total_proyectada": 5291, "pob_dispersa": 1567, "pob_urbana_estimada": 3724, "point_source": "centroide_distrito"}}, {"type": "Feature", "geometry": {"type": "Point", "coordinates": [-73.25946288999995, -3.749269530999925]}, "properties": {"ubigeo": "160101", "dep": "Loreto", "prov": "Maynas", "dist": "Iquitos", "pob_total_proyectada": 165605, "pob_dispersa": 812, "pob_urbana_estimada": 164793, "point_source": "capital_distrital"}}, {"type": "Feature", "geometry": {"type": "Point", "coordinates": [-76.28103906199993, -5.293302734999941]}, "properties": {"ubigeo": "160205", "dep": "Loreto", "prov": "Alto Amazonas", "dist": "Jeberos", "pob_total_proyectada": 4805, "pob_dispersa": 1019, "pob_urbana_estimada": 3786, "point_source": "capital_distrital"}}, {"type": "Feature", "geometry": {"type": "Point", "coordinates": [-73.67223084999995, -4.904392969999947]}, "properties": {"ubigeo": "160510", "dep": "Loreto", "prov": "Requena", "dist": "Jenaro Herrera", "pob_total_proyectada": 4964, "pob_dispersa": 447, "pob_urbana_estimada": 4517, "point_source": "capital_distrital"}}, {"type": "Feature", "geometry": {"type": "Point", "coordinates": [-79.79680370299997, -4.582756870999958]}, "properties": {"ubigeo": "200203", "dep": "Piura", "prov": "Ayabaca", "dist": "Jilili", "pob_total_proyectada": 2574, "pob_dispersa": 1211, "pob_urbana_estimada": 1363, "point_source": "capital_distrital"}}, {"type": "Feature", "geometry": {"type": "Point", "coordinates": [-73.78934960899994, -12.618900390999954]}, "properties": {"ubigeo": "080907", "dep": "Cusco", "prov": "La Convencion", "dist": "Kimbiri", "pob_total_proyectada": 14508, "pob_dispersa": 2796, "pob_urbana_estimada": 11712, "point_source": "capital_distrital"}}, {"type": "Feature", "geometry": {"type": "Point", "coordinates": [-71.42920507799994, -12.987867187999939]}, "properties": {"ubigeo": "081106", "dep": "Cusco", "prov": "Paucartambo", "dist": "Kosñipata", "pob_total_proyectada": 4955, "pob_dispersa": 891, "pob_urbana_estimada": 4064, "point_source": "capital_distrital"}}, {"type": "Feature", "geometry": {"type": "Point", "coordinates": [-71.30616015599998, -14.533874999999966]}, "properties": {"ubigeo": "080503", "dep": "Cusco", "prov": "Canas", "dist": "Kunturkanki", "pob_total_proyectada": 5134, "pob_dispersa": 2904, "pob_urbana_estimada": 2230, "point_source": "capital_distrital"}}, {"type": "Feature", "geometry": {"type": "Point", "coordinates": [-80.71029340899997, -5.346934228999942]}, "properties": {"ubigeo": "200109", "dep": "Piura", "prov": "Piura", "dist": "La Arena", "pob_total_proyectada": 43124, "pob_dispersa": 213, "pob_urbana_estimada": 42911, "point_source": "capital_distrital"}}, {"type": "Feature", "geometry": {"type": "Point", "coordinates": [-81.30421898199995, -4.658667955999931]}, "properties": {"ubigeo": "200703", "dep": "Piura", "prov": "Talara", "dist": "La Brea", "pob_total_proyectada": 13456, "pob_dispersa": 209, "pob_urbana_estimada": 13247, "point_source": "capital_distrital"}}, {"type": "Feature", "geometry": {"type": "Point", "coordinates": [-80.96134182999998, -4.911816599999952]}, "properties": {"ubigeo": "200505", "dep": "Piura", "prov": "Paita", "dist": "La Huaca", "pob_total_proyectada": 15136, "pob_dispersa": 133, "pob_urbana_estimada": 15003, "point_source": "capital_distrital"}}, {"type": "Feature", "geometry": {"type": "Point", "coordinates": [-80.08863521199999, -5.211644063999927]}, "properties": {"ubigeo": "200404", "dep": "Piura", "prov": "Morropon", "dist": "La Matanza", "pob_total_proyectada": 15965, "pob_dispersa": 1044, "pob_urbana_estimada": 14921, "point_source": "capital_distrital"}}, {"type": "Feature", "geometry": {"type": "Point", "coordinates": [-80.74356304499997, -5.401490920999947]}, "properties": {"ubigeo": "200110", "dep": "Piura", "prov": "Piura", "dist": "La Union", "pob_total_proyectada": 47158, "pob_dispersa": 109, "pob_urbana_estimada": 47049, "point_source": "capital_distrital"}}, {"type": "Feature", "geometry": {"type": "Point", "coordinates": [-75.67945219399996, -5.228211402999932]}, "properties": {"ubigeo": "160206", "dep": "Loreto", "prov": "Alto Amazonas", "dist": "Lagunas", "pob_total_proyectada": 13835, "pob_dispersa": 2176, "pob_urbana_estimada": 11659, "point_source": "capital_distrital"}}, {"type": "Feature", "geometry": {"type": "Point", "coordinates": [-79.84464257699995, -4.789445312999931]}, "properties": {"ubigeo": "200204", "dep": "Piura", "prov": "Ayabaca", "dist": "Lagunas", "pob_total_proyectada": 5514, "pob_dispersa": 3223, "pob_urbana_estimada": 2291, "point_source": "capital_distrital"}}, {"type": "Feature", "geometry": {"type": "Point", "coordinates": [-79.67841220599996, -5.213229345999935]}, "properties": {"ubigeo": "200305", "dep": "Piura", "prov": "Huancabamba", "dist": "Lalaquiz", "pob_total_proyectada": 3811, "pob_dispersa": 1832, "pob_urbana_estimada": 1979, "point_source": "capital_distrital"}}, {"type": "Feature", "geometry": {"type": "Point", "coordinates": [-71.8821354, -13.32577467]}, "properties": {"ubigeo": "080403", "dep": "Cusco", "prov": "Calca", "dist": "Lamay", "pob_total_proyectada": 6054, "pob_dispersa": 1388, "pob_urbana_estimada": 4666, "point_source": "centroide_distrito"}}, {"type": "Feature", "geometry": {"type": "Point", "coordinates": [-80.47815387599996, -4.574791709999943]}, "properties": {"ubigeo": "200604", "dep": "Piura", "prov": "Sullana", "dist": "Lancones", "pob_total_proyectada": 13398, "pob_dispersa": 6478, "pob_urbana_estimada": 6920, "point_source": "capital_distrital"}}, {"type": "Feature", "geometry": {"type": "Point", "coordinates": [-71.27286718699997, -14.431970702999934]}, "properties": {"ubigeo": "080504", "dep": "Cusco", "prov": "Canas", "dist": "Langui", "pob_total_proyectada": 2000, "pob_dispersa": 1639, "pob_urbana_estimada": 361, "point_source": "capital_distrital"}}, {"type": "Feature", "geometry": {"type": "Point", "coordinates": [-72.03485827, -13.06745704]}, "properties": {"ubigeo": "080404", "dep": "Cusco", "prov": "Calca", "dist": "Lares", "pob_total_proyectada": 6167, "pob_dispersa": 2310, "pob_urbana_estimada": 3857, "point_source": "centroide_distrito"}}, {"type": "Feature", "geometry": {"type": "Point", "coordinates": [-72.76512304699997, -3.41926562499998]}, "properties": {"ubigeo": "160105", "dep": "Loreto", "prov": "Maynas", "dist": "Las Amazonas", "pob_total_proyectada": 7588, "pob_dispersa": 3948, "pob_urbana_estimada": 3640, "point_source": "capital_distrital"}}, {"type": "Feature", "geometry": {"type": "Point", "coordinates": [-80.24124996399996, -4.658156525999971]}, "properties": {"ubigeo": "200111", "dep": "Piura", "prov": "Piura", "dist": "Las Lomas", "pob_total_proyectada": 29609, "pob_dispersa": 1606, "pob_urbana_estimada": 28003, "point_source": "capital_distrital"}}, {"type": "Feature", "geometry": {"type": "Point", "coordinates": [-71.15521874999996, -14.49315624999997]}, "properties": {"ubigeo": "080505", "dep": "Cusco", "prov": "Canas", "dist": "Layo", "pob_total_proyectada": 5424, "pob_dispersa": 2803, "pob_urbana_estimada": 2621, "point_source": "capital_distrital"}}, {"type": "Feature", "geometry": {"type": "Point", "coordinates": [-72.43716944, -13.48313967]}, "properties": {"ubigeo": "080306", "dep": "Cusco", "prov": "Anta", "dist": "Limatambo", "pob_total_proyectada": 7417, "pob_dispersa": 3222, "pob_urbana_estimada": 4195, "point_source": "centroide_distrito"}}, {"type": "Feature", "geometry": {"type": "Point", "coordinates": [-71.68927929699998, -14.31248046899998]}, "properties": {"ubigeo": "080705", "dep": "Cusco", "prov": "Chumbivilcas", "dist": "Livitaca", "pob_total_proyectada": 13176, "pob_dispersa": 5884, "pob_urbana_estimada": 7292, "point_source": "capital_distrital"}}, {"type": "Feature", "geometry": {"type": "Point", "coordinates": [-72.11383007799998, -14.337412108999956]}, "properties": {"ubigeo": "080706", "dep": "Cusco", "prov": "Chumbivilcas", "dist": "Llusco", "pob_total_proyectada": 3907, "pob_dispersa": 2843, "pob_urbana_estimada": 1064, "point_source": "capital_distrital"}}, {"type": "Feature", "geometry": {"type": "Point", "coordinates": [-81.27593570599998, -4.453239757999938]}, "properties": {"ubigeo": "200704", "dep": "Piura", "prov": "Talara", "dist": "Lobitos", "pob_total_proyectada": 1365, "pob_dispersa": 41, "pob_urbana_estimada": 1324, "point_source": "capital_distrital"}}, {"type": "Feature", "geometry": {"type": "Point", "coordinates": [-81.12881166499994, -4.179204310999978]}, "properties": {"ubigeo": "200705", "dep": "Piura", "prov": "Talara", "dist": "Los Organos", "pob_total_proyectada": 12273, "pob_dispersa": 50, "pob_urbana_estimada": 12223, "point_source": "capital_distrital"}}, {"type": "Feature", "geometry": {"type": "Point", "coordinates": [-71.73817773399998, -13.633085937999965]}, "properties": {"ubigeo": "081208", "dep": "Cusco", "prov": "Quispicanchi", "dist": "Lucre", "pob_total_proyectada": 5747, "pob_dispersa": 310, "pob_urbana_estimada": 5437, "point_source": "capital_distrital"}}, {"type": "Feature", "geometry": {"type": "Point", "coordinates": [-72.47512266, -13.20888867]}, "properties": {"ubigeo": "081304", "dep": "Cusco", "prov": "Urubamba", "dist": "Machupicchu", "pob_total_proyectada": 5791, "pob_dispersa": 822, "pob_urbana_estimada": 4969, "point_source": "centroide_distrito"}}, {"type": "Feature", "geometry": {"type": "Point", "coordinates": [-81.05255795699998, -4.107579840999961]}, "properties": {"ubigeo": "200706", "dep": "Piura", "prov": "Talara", "dist": "Mancora", "pob_total_proyectada": 15242, "pob_dispersa": 129, "pob_urbana_estimada": 15113, "point_source": "capital_distrital"}}, {"type": "Feature", "geometry": {"type": "Point", "coordinates": [-77.49066166, -4.67318479]}, "properties": {"ubigeo": "160703", "dep": "Loreto", "prov": "Datem del Marañon", "dist": "Manseriche", "pob_total_proyectada": 9577, "pob_dispersa": 1355, "pob_urbana_estimada": 8222, "point_source": "centroide_distrito"}}, {"type": "Feature", "geometry": {"type": "Point", "coordinates": [-74.54928124999998, -5.788285156999962]}, "properties": {"ubigeo": "160505", "dep": "Loreto", "prov": "Requena", "dist": "Maquia", "pob_total_proyectada": 8844, "pob_dispersa": 1732, "pob_urbana_estimada": 7112, "point_source": "capital_distrital"}}, {"type": "Feature", "geometry": {"type": "Point", "coordinates": [-71.16834374999996, -14.357876952999959]}, "properties": {"ubigeo": "080604", "dep": "Cusco", "prov": "Canchis", "dist": "Marangani", "pob_total_proyectada": 10170, "pob_dispersa": 2712, "pob_urbana_estimada": 7458, "point_source": "capital_distrital"}}, {"type": "Feature", "geometry": {"type": "Point", "coordinates": [-72.66360732599998, -12.964544197999942]}, "properties": {"ubigeo": "080904", "dep": "Cusco", "prov": "La Convencion", "dist": "Maranura", "pob_total_proyectada": 4681, "pob_dispersa": 2332, "pob_urbana_estimada": 2349, "point_source": "capital_distrital"}}, {"type": "Feature", "geometry": {"type": "Point", "coordinates": [-72.15582901, -13.33445229]}, "properties": {"ubigeo": "081305", "dep": "Cusco", "prov": "Urubamba", "dist": "Maras", "pob_total_proyectada": 6877, "pob_dispersa": 1223, "pob_urbana_estimada": 5654, "point_source": "centroide_distrito"}}, {"type": "Feature", "geometry": {"type": "Point", "coordinates": [-70.95634960899997, -13.59488671899993]}, "properties": {"ubigeo": "081209", "dep": "Cusco", "prov": "Quispicanchi", "dist": "Marcapata", "pob_total_proyectada": 5038, "pob_dispersa": 3133, "pob_urbana_estimada": 1905, "point_source": "capital_distrital"}}, {"type": "Feature", "geometry": {"type": "Point", "coordinates": [-80.70515930399995, -4.875887598999952]}, "properties": {"ubigeo": "200605", "dep": "Piura", "prov": "Sullana", "dist": "Marcavelica", "pob_total_proyectada": 34188, "pob_dispersa": 718, "pob_urbana_estimada": 33470, "point_source": "capital_distrital"}}, {"type": "Feature", "geometry": {"type": "Point", "coordinates": [-73.11168359399994, -3.497287109999945]}, "properties": {"ubigeo": "160106", "dep": "Loreto", "prov": "Maynas", "dist": "Mazan", "pob_total_proyectada": 14313, "pob_dispersa": 4086, "pob_urbana_estimada": 10227, "point_source": "capital_distrital"}}, {"type": "Feature", "geometry": {"type": "Point", "coordinates": [-72.90256725, -11.73182011]}, "properties": {"ubigeo": "080914", "dep": "Cusco", "prov": "La Convencion", "dist": "Megantoni", "pob_total_proyectada": 7307, "pob_dispersa": 1215, "pob_urbana_estimada": 6092, "point_source": "centroide_distrito"}}, {"type": "Feature", "geometry": {"type": "Point", "coordinates": [-80.81466879599998, -4.899506735999978]}, "properties": {"ubigeo": "200606", "dep": "Piura", "prov": "Sullana", "dist": "Miguel Checa", "pob_total_proyectada": 11072, "pob_dispersa": 210, "pob_urbana_estimada": 10862, "point_source": "capital_distrital"}}, {"type": "Feature", "geometry": {"type": "Point", "coordinates": [-72.52809340699997, -13.507497985999976]}, "properties": {"ubigeo": "080307", "dep": "Cusco", "prov": "Anta", "dist": "Mollepata", "pob_total_proyectada": 3633, "pob_dispersa": 1354, "pob_urbana_estimada": 2279, "point_source": "capital_distrital"}}, {"type": "Feature", "geometry": {"type": "Point", "coordinates": [-79.82807870899995, -4.626932345999933]}, "properties": {"ubigeo": "200205", "dep": "Piura", "prov": "Ayabaca", "dist": "Montero", "pob_total_proyectada": 6370, "pob_dispersa": 2435, "pob_urbana_estimada": 3935, "point_source": "capital_distrital"}}, {"type": "Feature", "geometry": {"type": "Point", "coordinates": [-77.35686862, -3.81460078]}, "properties": {"ubigeo": "160704", "dep": "Loreto", "prov": "Datem del Marañon", "dist": "Morona", "pob_total_proyectada": 3938, "pob_dispersa": 1928, "pob_urbana_estimada": 2010, "point_source": "centroide_distrito"}}, {"type": "Feature", "geometry": {"type": "Point", "coordinates": [-79.97154627399993, -5.185736671999962]}, "properties": {"ubigeo": "200405", "dep": "Piura", "prov": "Morropon", "dist": "Morropon", "pob_total_proyectada": 16826, "pob_dispersa": 709, "pob_urbana_estimada": 16117, "point_source": "capital_distrital"}}, {"type": "Feature", "geometry": {"type": "Point", "coordinates": [-71.47322656299997, -14.120431640999982]}, "properties": {"ubigeo": "080204", "dep": "Cusco", "prov": "Acomayo", "dist": "Mosoc Llacta", "pob_total_proyectada": 920, "pob_dispersa": 305, "pob_urbana_estimada": 615, "point_source": "capital_distrital"}}, {"type": "Feature", "geometry": {"type": "Point", "coordinates": [-73.67847580199998, -2.4887077099999715]}, "properties": {"ubigeo": "160107", "dep": "Loreto", "prov": "Maynas", "dist": "Napo", "pob_total_proyectada": 18545, "pob_dispersa": 4506, "pob_urbana_estimada": 14039, "point_source": "capital_distrital"}}, {"type": "Feature", "geometry": {"type": "Point", "coordinates": [-73.57563281199998, -4.505167968999956]}, "properties": {"ubigeo": "160301", "dep": "Loreto", "prov": "Loreto", "dist": "Nauta", "pob_total_proyectada": 35004, "pob_dispersa": 3752, "pob_urbana_estimada": 31252, "point_source": "capital_distrital"}}, {"type": "Feature", "geometry": {"type": "Point", "coordinates": [-72.43638033499997, -12.88556783599995]}, "properties": {"ubigeo": "080905", "dep": "Cusco", "prov": "La Convencion", "dist": "Ocobamba", "pob_total_proyectada": 5737, "pob_dispersa": 3253, "pob_urbana_estimada": 2484, "point_source": "capital_distrital"}}, {"type": "Feature", "geometry": {"type": "Point", "coordinates": [-71.38673437499995, -13.62707226599997]}, "properties": {"ubigeo": "081210", "dep": "Cusco", "prov": "Quispicanchi", "dist": "Ocongate", "pob_total_proyectada": 19799, "pob_dispersa": 5113, "pob_urbana_estimada": 14686, "point_source": "capital_distrital"}}, {"type": "Feature", "geometry": {"type": "Point", "coordinates": [-71.13123085799998, -15.050664900999948]}, "properties": {"ubigeo": "080804", "dep": "Cusco", "prov": "Espinar", "dist": "Ocoruro", "pob_total_proyectada": 818, "pob_dispersa": 851, "pob_urbana_estimada": 0, "point_source": "capital_distrital"}}, {"type": "Feature", "geometry": {"type": "Point", "coordinates": [-72.31174723, -13.23486336]}, "properties": {"ubigeo": "081306", "dep": "Cusco", "prov": "Urubamba", "dist": "Ollantaytambo", "pob_total_proyectada": 12193, "pob_dispersa": 3570, "pob_urbana_estimada": 8623, "point_source": "centroide_distrito"}}, {"type": "Feature", "geometry": {"type": "Point", "coordinates": [-71.73820312499998, -14.069712890999938]}, "properties": {"ubigeo": "081006", "dep": "Cusco", "prov": "Paruro", "dist": "Omacha", "pob_total_proyectada": 5718, "pob_dispersa": 2398, "pob_urbana_estimada": 3320, "point_source": "capital_distrital"}}, {"type": "Feature", "geometry": {"type": "Point", "coordinates": [-71.76408041299999, -13.592517956999927]}, "properties": {"ubigeo": "081211", "dep": "Cusco", "prov": "Quispicanchi", "dist": "Oropesa", "pob_total_proyectada": 13336, "pob_dispersa": 478, "pob_urbana_estimada": 12858, "point_source": "capital_distrital"}}, {"type": "Feature", "geometry": {"type": "Point", "coordinates": [-79.66849804699996, -4.994580077999956]}, "properties": {"ubigeo": "200206", "dep": "Piura", "prov": "Ayabaca", "dist": "Pacaipampa", "pob_total_proyectada": 22778, "pob_dispersa": 6644, "pob_urbana_estimada": 16134, "point_source": "capital_distrital"}}, {"type": "Feature", "geometry": {"type": "Point", "coordinates": [-71.95605273399997, -13.755998046999935]}, "properties": {"ubigeo": "081007", "dep": "Cusco", "prov": "Paruro", "dist": "Paccaritambo", "pob_total_proyectada": 2024, "pob_dispersa": 1081, "pob_urbana_estimada": 943, "point_source": "capital_distrital"}}, {"type": "Feature", "geometry": {"type": "Point", "coordinates": [-74.84015625299998, -7.947041020999961]}, "properties": {"ubigeo": "160603", "dep": "Loreto", "prov": "Ucayali", "dist": "Padre Marquez", "pob_total_proyectada": 2739, "pob_dispersa": 966, "pob_urbana_estimada": 1773, "point_source": "capital_distrital"}}, {"type": "Feature", "geometry": {"type": "Point", "coordinates": [-79.94623094699995, -4.625904613999978]}, "properties": {"ubigeo": "200207", "dep": "Piura", "prov": "Ayabaca", "dist": "Paimas", "pob_total_proyectada": 10840, "pob_dispersa": 1610, "pob_urbana_estimada": 9230, "point_source": "capital_distrital"}}, {"type": "Feature", "geometry": {"type": "Point", "coordinates": [-81.11384960499998, -5.0877070309999795]}, "properties": {"ubigeo": "200501", "dep": "Piura", "prov": "Paita", "dist": "Paita", "pob_total_proyectada": 115977, "pob_dispersa": 5, "pob_urbana_estimada": 115972, "point_source": "capital_distrital"}}, {"type": "Feature", "geometry": {"type": "Point", "coordinates": [-71.20936341699996, -14.890570312999955]}, "properties": {"ubigeo": "080805", "dep": "Cusco", "prov": "Espinar", "dist": "Pallpata", "pob_total_proyectada": 5002, "pob_dispersa": 2050, "pob_urbana_estimada": 2952, "point_source": "capital_distrital"}}, {"type": "Feature", "geometry": {"type": "Point", "coordinates": [-75.29432031199997, -7.194501952999929]}, "properties": {"ubigeo": "160604", "dep": "Loreto", "prov": "Ucayali", "dist": "Pampa Hermosa", "pob_total_proyectada": 5786, "pob_dispersa": 1683, "pob_urbana_estimada": 4103, "point_source": "capital_distrital"}}, {"type": "Feature", "geometry": {"type": "Point", "coordinates": [-71.45866015599995, -14.14849023399995]}, "properties": {"ubigeo": "080506", "dep": "Cusco", "prov": "Canas", "dist": "Pampamarca", "pob_total_proyectada": 1862, "pob_dispersa": 155, "pob_urbana_estimada": 1707, "point_source": "capital_distrital"}}, {"type": "Feature", "geometry": {"type": "Point", "coordinates": [-74.48221160199995, -4.549164555999937]}, "properties": {"ubigeo": "160302", "dep": "Loreto", "prov": "Loreto", "dist": "Parinari", "pob_total_proyectada": 5647, "pob_dispersa": 1140, "pob_urbana_estimada": 4507, "point_source": "capital_distrital"}}, {"type": "Feature", "geometry": {"type": "Point", "coordinates": [-81.27209374499995, -4.580689452999934]}, "properties": {"ubigeo": "200701", "dep": "Piura", "prov": "Talara", "dist": "Pariñas", "pob_total_proyectada": 110326, "pob_dispersa": 312, "pob_urbana_estimada": 110014, "point_source": "capital_distrital"}}, {"type": "Feature", "geometry": {"type": "Point", "coordinates": [-71.85109570299994, -13.759031249999964]}, "properties": {"ubigeo": "081001", "dep": "Cusco", "prov": "Paruro", "dist": "Paruro", "pob_total_proyectada": 3484, "pob_dispersa": 1185, "pob_urbana_estimada": 2299, "point_source": "capital_distrital"}}, {"type": "Feature", "geometry": {"type": "Point", "coordinates": [-76.91953702, -4.05865357]}, "properties": {"ubigeo": "160705", "dep": "Loreto", "prov": "Datem del Marañon", "dist": "Pastaza", "pob_total_proyectada": 6033, "pob_dispersa": 1842, "pob_urbana_estimada": 4191, "point_source": "centroide_distrito"}}, {"type": "Feature", "geometry": {"type": "Point", "coordinates": [-71.4900767, -13.30831254]}, "properties": {"ubigeo": "081101", "dep": "Cusco", "prov": "Paucartambo", "dist": "Paucartambo", "pob_total_proyectada": 13946, "pob_dispersa": 4441, "pob_urbana_estimada": 9505, "point_source": "centroide_distrito"}}, {"type": "Feature", "geometry": {"type": "Point", "coordinates": [-71.86521982299996, -3.320398313999931]}, "properties": {"ubigeo": "160402", "dep": "Loreto", "prov": "Mariscal Ramon Castilla", "dist": "Pebas", "pob_total_proyectada": 11996, "pob_dispersa": 2168, "pob_urbana_estimada": 9828, "point_source": "capital_distrital"}}, {"type": "Feature", "geometry": {"type": "Point", "coordinates": [-73.82766194499999, -12.518392577999975]}, "properties": {"ubigeo": "080910", "dep": "Cusco", "prov": "La Convencion", "dist": "Pichari", "pob_total_proyectada": 26260, "pob_dispersa": 2567, "pob_urbana_estimada": 23693, "point_source": "capital_distrital"}}, {"type": "Feature", "geometry": {"type": "Point", "coordinates": [-71.40944282299995, -14.677932387999931]}, "properties": {"ubigeo": "080806", "dep": "Cusco", "prov": "Espinar", "dist": "Pichigua", "pob_total_proyectada": 2514, "pob_dispersa": 2273, "pob_urbana_estimada": 241, "point_source": "capital_distrital"}}, {"type": "Feature", "geometry": {"type": "Point", "coordinates": [-71.76394286499993, -13.953652472999977]}, "properties": {"ubigeo": "081008", "dep": "Cusco", "prov": "Paruro", "dist": "Pillpinto", "pob_total_proyectada": 975, "pob_dispersa": 205, "pob_urbana_estimada": 770, "point_source": "capital_distrital"}}, {"type": "Feature", "geometry": {"type": "Point", "coordinates": [-71.80039704, -13.38839511]}, "properties": {"ubigeo": "080405", "dep": "Cusco", "prov": "Calca", "dist": "Pisac", "pob_total_proyectada": 12049, "pob_dispersa": 733, "pob_urbana_estimada": 11316, "point_source": "centroide_distrito"}}, {"type": "Feature", "geometry": {"type": "Point", "coordinates": [-71.41608007799994, -13.979607421999958]}, "properties": {"ubigeo": "080605", "dep": "Cusco", "prov": "Canchis", "dist": "Pitumarca", "pob_total_proyectada": 8634, "pob_dispersa": 2293, "pob_urbana_estimada": 6341, "point_source": "capital_distrital"}}, {"type": "Feature", "geometry": {"type": "Point", "coordinates": [-80.62701366999994, -5.195322264999959]}, "properties": {"ubigeo": "200101", "dep": "Piura", "prov": "Piura", "dist": "Piura", "pob_total_proyectada": 197373, "pob_dispersa": 733, "pob_urbana_estimada": 196640, "point_source": "capital_distrital"}}, {"type": "Feature", "geometry": {"type": "Point", "coordinates": [-71.57080273399998, -14.035947265999937]}, "properties": {"ubigeo": "080205", "dep": "Cusco", "prov": "Acomayo", "dist": "Pomacanchi", "pob_total_proyectada": 7461, "pob_dispersa": 984, "pob_urbana_estimada": 6477, "point_source": "capital_distrital"}}, {"type": "Feature", "geometry": {"type": "Point", "coordinates": [-72.04412366, -13.50431617]}, "properties": {"ubigeo": "080103", "dep": "Cusco", "prov": "Cusco", "dist": "Poroy", "pob_total_proyectada": 15177, "pob_dispersa": 636, "pob_urbana_estimada": 14541, "point_source": "centroide_distrito"}}, {"type": "Feature", "geometry": {"type": "Point", "coordinates": [-72.10235354, -13.48230367]}, "properties": {"ubigeo": "080308", "dep": "Cusco", "prov": "Anta", "dist": "Pucyura", "pob_total_proyectada": 3068, "pob_dispersa": 878, "pob_urbana_estimada": 2190, "point_source": "centroide_distrito"}}, {"type": "Feature", "geometry": {"type": "Point", "coordinates": [-74.34621783999995, -5.282106331999955]}, "properties": {"ubigeo": "160506", "dep": "Loreto", "prov": "Requena", "dist": "Puinahua", "pob_total_proyectada": 4224, "pob_dispersa": 540, "pob_urbana_estimada": 3684, "point_source": "capital_distrital"}}, {"type": "Feature", "geometry": {"type": "Point", "coordinates": [-73.24247265599996, -3.73023828099997]}, "properties": {"ubigeo": "160108", "dep": "Loreto", "prov": "Maynas", "dist": "Punchana", "pob_total_proyectada": 92932, "pob_dispersa": 2073, "pob_urbana_estimada": 90859, "point_source": "capital_distrital"}}, {"type": "Feature", "geometry": {"type": "Point", "coordinates": [-73.41581375, -2.30313983]}, "properties": {"ubigeo": "160801", "dep": "Loreto", "prov": "Putumayo", "dist": "Putumayo", "pob_total_proyectada": 4527, "pob_dispersa": 610, "pob_urbana_estimada": 3917, "point_source": "centroide_distrito"}}, {"type": "Feature", "geometry": {"type": "Point", "coordinates": [-71.45495117199994, -14.380044921999968]}, "properties": {"ubigeo": "080507", "dep": "Cusco", "prov": "Canas", "dist": "Quehue", "pob_total_proyectada": 2540, "pob_dispersa": 2229, "pob_urbana_estimada": 311, "point_source": "capital_distrital"}}, {"type": "Feature", "geometry": {"type": "Point", "coordinates": [-72.55946093799997, -12.636238280999976]}, "properties": {"ubigeo": "080906", "dep": "Cusco", "prov": "La Convencion", "dist": "Quellouno", "pob_total_proyectada": 15035, "pob_dispersa": 7412, "pob_urbana_estimada": 7623, "point_source": "capital_distrital"}}, {"type": "Feature", "geometry": {"type": "Point", "coordinates": [-80.64632234699997, -4.837895034999974]}, "properties": {"ubigeo": "200607", "dep": "Piura", "prov": "Sullana", "dist": "Querecotillo", "pob_total_proyectada": 29281, "pob_dispersa": 373, "pob_urbana_estimada": 28908, "point_source": "capital_distrital"}}, {"type": "Feature", "geometry": {"type": "Point", "coordinates": [-72.13630468799994, -14.310880858999951]}, "properties": {"ubigeo": "080707", "dep": "Cusco", "prov": "Chumbivilcas", "dist": "Quiñota", "pob_total_proyectada": 3956, "pob_dispersa": 2362, "pob_urbana_estimada": 1594, "point_source": "capital_distrital"}}, {"type": "Feature", "geometry": {"type": "Point", "coordinates": [-71.54046093799997, -13.821222655999975]}, "properties": {"ubigeo": "081212", "dep": "Cusco", "prov": "Quispicanchi", "dist": "Quiquijana", "pob_total_proyectada": 12219, "pob_dispersa": 3097, "pob_urbana_estimada": 9122, "point_source": "capital_distrital"}}, {"type": "Feature", "geometry": {"type": "Point", "coordinates": [-70.51676757899997, -3.909076170999981]}, "properties": {"ubigeo": "160401", "dep": "Loreto", "prov": "Mariscal Ramon Castilla", "dist": "Ramon Castilla", "pob_total_proyectada": 25938, "pob_dispersa": 3908, "pob_urbana_estimada": 22030, "point_source": "capital_distrital"}}, {"type": "Feature", "geometry": {"type": "Point", "coordinates": [-73.85002538999998, -5.05841406299993]}, "properties": {"ubigeo": "160501", "dep": "Loreto", "prov": "Requena", "dist": "Requena", "pob_total_proyectada": 28313, "pob_dispersa": 1368, "pob_urbana_estimada": 26945, "point_source": "capital_distrital"}}, {"type": "Feature", "geometry": {"type": "Point", "coordinates": [-80.76167878699994, -5.457177184999978]}, "properties": {"ubigeo": "200806", "dep": "Piura", "prov": "Sechura", "dist": "Rinconada Llicuar", "pob_total_proyectada": 3281, "pob_dispersa": 5, "pob_urbana_estimada": 3276, "point_source": "capital_distrital"}}, {"type": "Feature", "geometry": {"type": "Point", "coordinates": [-71.78160053199997, -13.778510022999967]}, "properties": {"ubigeo": "080206", "dep": "Cusco", "prov": "Acomayo", "dist": "Rondocan", "pob_total_proyectada": 1717, "pob_dispersa": 528, "pob_urbana_estimada": 1189, "point_source": "capital_distrital"}}, {"type": "Feature", "geometry": {"type": "Point", "coordinates": [-73.71353026, -1.60956178]}, "properties": {"ubigeo": "160802", "dep": "Loreto", "prov": "Putumayo", "dist": "Rosa Panduro", "pob_total_proyectada": 578, "pob_dispersa": 251, "pob_urbana_estimada": 327, "point_source": "centroide_distrito"}}, {"type": "Feature", "geometry": {"type": "Point", "coordinates": [-79.83222265499995, -5.342056640999942]}, "properties": {"ubigeo": "200406", "dep": "Piura", "prov": "Morropon", "dist": "Salitral", "pob_total_proyectada": 9344, "pob_dispersa": 693, "pob_urbana_estimada": 8651, "point_source": "capital_distrital"}}, {"type": "Feature", "geometry": {"type": "Point", "coordinates": [-80.67967650899999, -4.856757611999967]}, "properties": {"ubigeo": "200608", "dep": "Piura", "prov": "Sullana", "dist": "Salitral", "pob_total_proyectada": 8152, "pob_dispersa": 115, "pob_urbana_estimada": 8037, "point_source": "capital_distrital"}}, {"type": "Feature", "geometry": {"type": "Point", "coordinates": [-71.88534337099998, -13.545336753999948]}, "properties": {"ubigeo": "080104", "dep": "Cusco", "prov": "Cusco", "dist": "San Jeronimo", "pob_total_proyectada": 83279, "pob_dispersa": 918, "pob_urbana_estimada": 82361, "point_source": "capital_distrital"}}, {"type": "Feature", "geometry": {"type": "Point", "coordinates": [-73.28100281899998, -3.773404702999926]}, "properties": {"ubigeo": "160113", "dep": "Loreto", "prov": "Maynas", "dist": "San Juan Bautista", "pob_total_proyectada": 170346, "pob_dispersa": 3034, "pob_urbana_estimada": 167312, "point_source": "capital_distrital"}}, {"type": "Feature", "geometry": {"type": "Point", "coordinates": [-79.78490433199994, -5.318751649999967]}, "properties": {"ubigeo": "200407", "dep": "Piura", "prov": "Morropon", "dist": "San Juan de Bigote", "pob_total_proyectada": 6587, "pob_dispersa": 1489, "pob_urbana_estimada": 5098, "point_source": "capital_distrital"}}, {"type": "Feature", "geometry": {"type": "Point", "coordinates": [-79.60451713399993, -5.401592776999962]}, "properties": {"ubigeo": "200306", "dep": "Piura", "prov": "Huancabamba", "dist": "San Miguel de el Faique", "pob_total_proyectada": 9567, "pob_dispersa": 1889, "pob_urbana_estimada": 7678, "point_source": "capital_distrital"}}, {"type": "Feature", "geometry": {"type": "Point", "coordinates": [-71.31520117199995, -14.202890624999952]}, "properties": {"ubigeo": "080606", "dep": "Cusco", "prov": "Canchis", "dist": "San Pablo", "pob_total_proyectada": 4326, "pob_dispersa": 1676, "pob_urbana_estimada": 2650, "point_source": "capital_distrital"}}, {"type": "Feature", "geometry": {"type": "Point", "coordinates": [-71.10191092799994, -4.017673317999936]}, "properties": {"ubigeo": "160404", "dep": "Loreto", "prov": "Mariscal Ramon Castilla", "dist": "San Pablo", "pob_total_proyectada": 12847, "pob_dispersa": 1891, "pob_urbana_estimada": 10956, "point_source": "capital_distrital"}}, {"type": "Feature", "geometry": {"type": "Point", "coordinates": [-71.34292773399994, -14.186177733999955]}, "properties": {"ubigeo": "080607", "dep": "Cusco", "prov": "Canchis", "dist": "San Pedro", "pob_total_proyectada": 2751, "pob_dispersa": 874, "pob_urbana_estimada": 1877, "point_source": "capital_distrital"}}, {"type": "Feature", "geometry": {"type": "Point", "coordinates": [-71.77575852, -13.49909404]}, "properties": {"ubigeo": "080406", "dep": "Cusco", "prov": "Calca", "dist": "San Salvador", "pob_total_proyectada": 6317, "pob_dispersa": 1161, "pob_urbana_estimada": 5156, "point_source": "centroide_distrito"}}, {"type": "Feature", "geometry": {"type": "Point", "coordinates": [-71.93448946199999, -13.530002812999953]}, "properties": {"ubigeo": "080105", "dep": "Cusco", "prov": "Cusco", "dist": "San Sebastian", "pob_total_proyectada": 152277, "pob_dispersa": 171, "pob_urbana_estimada": 152106, "point_source": "capital_distrital"}}, {"type": "Feature", "geometry": {"type": "Point", "coordinates": [-71.60250650299997, -13.94843895899993]}, "properties": {"ubigeo": "080207", "dep": "Cusco", "prov": "Acomayo", "dist": "Sangarara", "pob_total_proyectada": 3335, "pob_dispersa": 149, "pob_urbana_estimada": 3186, "point_source": "capital_distrital"}}, {"type": "Feature", "geometry": {"type": "Point", "coordinates": [-72.69362890599996, -12.863773437999953]}, "properties": {"ubigeo": "080901", "dep": "Cusco", "prov": "La Convencion", "dist": "Santa Ana", "pob_total_proyectada": 28710, "pob_dispersa": 2920, "pob_urbana_estimada": 25790, "point_source": "capital_distrital"}}, {"type": "Feature", "geometry": {"type": "Point", "coordinates": [-79.88480011099995, -5.103474910999978]}, "properties": {"ubigeo": "200408", "dep": "Piura", "prov": "Morropon", "dist": "Santa Catalina de Mossa", "pob_total_proyectada": 3585, "pob_dispersa": 1079, "pob_urbana_estimada": 2506, "point_source": "capital_distrital"}}, {"type": "Feature", "geometry": {"type": "Point", "coordinates": [-75.85814648499996, -5.512933593999946]}, "properties": {"ubigeo": "160210", "dep": "Loreto", "prov": "Alto Amazonas", "dist": "Santa Cruz", "pob_total_proyectada": 4337, "pob_dispersa": 2128, "pob_urbana_estimada": 2209, "point_source": "capital_distrital"}}, {"type": "Feature", "geometry": {"type": "Point", "coordinates": [-72.68085099, -13.23134086]}, "properties": {"ubigeo": "080908", "dep": "Cusco", "prov": "La Convencion", "dist": "Santa Teresa", "pob_total_proyectada": 6886, "pob_dispersa": 3134, "pob_urbana_estimada": 3752, "point_source": "centroide_distrito"}}, {"type": "Feature", "geometry": {"type": "Point", "coordinates": [-71.98001266599994, -13.52714095999994]}, "properties": {"ubigeo": "080106", "dep": "Cusco", "prov": "Cusco", "dist": "Santiago", "pob_total_proyectada": 108825, "pob_dispersa": 498, "pob_urbana_estimada": 108327, "point_source": "capital_distrital"}}, {"type": "Feature", "geometry": {"type": "Point", "coordinates": [-79.87618444999998, -5.028745047999962]}, "properties": {"ubigeo": "200409", "dep": "Piura", "prov": "Morropon", "dist": "Santo Domingo", "pob_total_proyectada": 5159, "pob_dispersa": 2750, "pob_urbana_estimada": 2409, "point_source": "capital_distrital"}}, {"type": "Feature", "geometry": {"type": "Point", "coordinates": [-72.08256054699996, -14.449099608999973]}, "properties": {"ubigeo": "080701", "dep": "Cusco", "prov": "Chumbivilcas", "dist": "Santo Tomas", "pob_total_proyectada": 22500, "pob_dispersa": 7654, "pob_urbana_estimada": 14846, "point_source": "capital_distrital"}}, {"type": "Feature", "geometry": {"type": "Point", "coordinates": [-79.98275693399995, -4.778737053999976]}, "properties": {"ubigeo": "200208", "dep": "Piura", "prov": "Ayabaca", "dist": "Sapillica", "pob_total_proyectada": 10946, "pob_dispersa": 4091, "pob_urbana_estimada": 6855, "point_source": "capital_distrital"}}, {"type": "Feature", "geometry": {"type": "Point", "coordinates": [-73.53302081699997, -4.723957797999958]}, "properties": {"ubigeo": "160507", "dep": "Loreto", "prov": "Requena", "dist": "Saquena", "pob_total_proyectada": 2713, "pob_dispersa": 593, "pob_urbana_estimada": 2120, "point_source": "capital_distrital"}}, {"type": "Feature", "geometry": {"type": "Point", "coordinates": [-75.11808984399994, -6.395619139999951]}, "properties": {"ubigeo": "160605", "dep": "Loreto", "prov": "Ucayali", "dist": "Sarayacu", "pob_total_proyectada": 15368, "pob_dispersa": 2001, "pob_urbana_estimada": 13367, "point_source": "capital_distrital"}}, {"type": "Feature", "geometry": {"type": "Point", "coordinates": [-71.82515820299994, -13.570958983999958]}, "properties": {"ubigeo": "080107", "dep": "Cusco", "prov": "Cusco", "dist": "Saylla", "pob_total_proyectada": 10311, "pob_dispersa": 567, "pob_urbana_estimada": 9744, "point_source": "capital_distrital"}}, {"type": "Feature", "geometry": {"type": "Point", "coordinates": [-80.82311325899997, -5.55601367099996]}, "properties": {"ubigeo": "200801", "dep": "Piura", "prov": "Sechura", "dist": "Sechura", "pob_total_proyectada": 59620, "pob_dispersa": 862, "pob_urbana_estimada": 58758, "point_source": "capital_distrital"}}, {"type": "Feature", "geometry": {"type": "Point", "coordinates": [-79.76271228999997, -4.569380490999947]}, "properties": {"ubigeo": "200209", "dep": "Piura", "prov": "Ayabaca", "dist": "Sicchez", "pob_total_proyectada": 1419, "pob_dispersa": 616, "pob_urbana_estimada": 803, "point_source": "capital_distrital"}}, {"type": "Feature", "geometry": {"type": "Point", "coordinates": [-71.22632617199997, -14.270613280999953]}, "properties": {"ubigeo": "080601", "dep": "Cusco", "prov": "Canchis", "dist": "Sicuani", "pob_total_proyectada": 66437, "pob_dispersa": 7042, "pob_urbana_estimada": 59395, "point_source": "capital_distrital"}}, {"type": "Feature", "geometry": {"type": "Point", "coordinates": [-79.40802932099996, -5.315344676999928]}, "properties": {"ubigeo": "200307", "dep": "Piura", "prov": "Huancabamba", "dist": "Sondor", "pob_total_proyectada": 7022, "pob_dispersa": 1511, "pob_urbana_estimada": 5511, "point_source": "capital_distrital"}}, {"type": "Feature", "geometry": {"type": "Point", "coordinates": [-79.42885776799994, -5.339428621999957]}, "properties": {"ubigeo": "200308", "dep": "Piura", "prov": "Huancabamba", "dist": "Sondorillo", "pob_total_proyectada": 11524, "pob_dispersa": 983, "pob_urbana_estimada": 10541, "point_source": "capital_distrital"}}, {"type": "Feature", "geometry": {"type": "Point", "coordinates": [-73.65597963, -6.26706379]}, "properties": {"ubigeo": "160508", "dep": "Loreto", "prov": "Requena", "dist": "Soplin", "pob_total_proyectada": 722, "pob_dispersa": 361, "pob_urbana_estimada": 361, "point_source": "centroide_distrito"}}, {"type": "Feature", "geometry": {"type": "Point", "coordinates": [-80.68996873699996, -4.905989860999966]}, "properties": {"ubigeo": "200601", "dep": "Piura", "prov": "Sullana", "dist": "Sullana", "pob_total_proyectada": 199760, "pob_dispersa": 1243, "pob_urbana_estimada": 198517, "point_source": "capital_distrital"}}, {"type": "Feature", "geometry": {"type": "Point", "coordinates": [-71.6442114, -15.00058442]}, "properties": {"ubigeo": "080807", "dep": "Cusco", "prov": "Espinar", "dist": "Suyckutambo", "pob_total_proyectada": 1205, "pob_dispersa": 1253, "pob_urbana_estimada": 0, "point_source": "centroide_distrito"}}, {"type": "Feature", "geometry": {"type": "Point", "coordinates": [-80.00293393599998, -4.513694843999929]}, "properties": {"ubigeo": "200210", "dep": "Piura", "prov": "Ayabaca", "dist": "Suyo", "pob_total_proyectada": 12141, "pob_dispersa": 3619, "pob_urbana_estimada": 8522, "point_source": "capital_distrital"}}, {"type": "Feature", "geometry": {"type": "Point", "coordinates": [-80.97421859199994, -4.878048684999953]}, "properties": {"ubigeo": "200506", "dep": "Piura", "prov": "Paita", "dist": "Tamarindo", "pob_total_proyectada": 5729, "pob_dispersa": 82, "pob_urbana_estimada": 5647, "point_source": "capital_distrital"}}, {"type": "Feature", "geometry": {"type": "Point", "coordinates": [-80.34309487199994, -4.927751385999954]}, "properties": {"ubigeo": "200114", "dep": "Piura", "prov": "Piura", "dist": "Tambo Grande", "pob_total_proyectada": 134568, "pob_dispersa": 2993, "pob_urbana_estimada": 131575, "point_source": "capital_distrital"}}, {"type": "Feature", "geometry": {"type": "Point", "coordinates": [-74.14046643899997, -5.695072570999969]}, "properties": {"ubigeo": "160509", "dep": "Loreto", "prov": "Requena", "dist": "Tapiche", "pob_total_proyectada": 891, "pob_dispersa": 373, "pob_urbana_estimada": 518, "point_source": "capital_distrital"}}, {"type": "Feature", "geometry": {"type": "Point", "coordinates": [-71.88747748, -13.45788079]}, "properties": {"ubigeo": "080407", "dep": "Cusco", "prov": "Calca", "dist": "Taray", "pob_total_proyectada": 4979, "pob_dispersa": 717, "pob_urbana_estimada": 4262, "point_source": "centroide_distrito"}}, {"type": "Feature", "geometry": {"type": "Point", "coordinates": [-75.87410839599994, -6.026826309999933]}, "properties": {"ubigeo": "160211", "dep": "Loreto", "prov": "Alto Amazonas", "dist": "Teniente Cesar Lopez Rojas", "pob_total_proyectada": 6329, "pob_dispersa": 1616, "pob_urbana_estimada": 4713, "point_source": "capital_distrital"}}, {"type": "Feature", "geometry": {"type": "Point", "coordinates": [-74.76326702, -0.74528426]}, "properties": {"ubigeo": "160803", "dep": "Loreto", "prov": "Putumayo", "dist": "Teniente Manuel Clavero", "pob_total_proyectada": 1942, "pob_dispersa": 1447, "pob_urbana_estimada": 495, "point_source": "centroide_distrito"}}, {"type": "Feature", "geometry": {"type": "Point", "coordinates": [-74.78056445299995, -3.489314452999963]}, "properties": {"ubigeo": "160303", "dep": "Loreto", "prov": "Loreto", "dist": "Tigre", "pob_total_proyectada": 7706, "pob_dispersa": 1939, "pob_urbana_estimada": 5767, "point_source": "capital_distrital"}}, {"type": "Feature", "geometry": {"type": "Point", "coordinates": [-71.40761328099995, -14.145636718999981]}, "properties": {"ubigeo": "080608", "dep": "Cusco", "prov": "Canchis", "dist": "Tinta", "pob_total_proyectada": 5426, "pob_dispersa": 1225, "pob_urbana_estimada": 4201, "point_source": "capital_distrital"}}, {"type": "Feature", "geometry": {"type": "Point", "coordinates": [-75.18089979499996, -0.967642964999925]}, "properties": {"ubigeo": "160110", "dep": "Loreto", "prov": "Maynas", "dist": "Torres Causana", "pob_total_proyectada": 5081, "pob_dispersa": 1319, "pob_urbana_estimada": 3762, "point_source": "capital_distrital"}}, {"type": "Feature", "geometry": {"type": "Point", "coordinates": [-75.05986101299999, -3.801733823999939]}, "properties": {"ubigeo": "160304", "dep": "Loreto", "prov": "Loreto", "dist": "Trompeteros", "pob_total_proyectada": 11823, "pob_dispersa": 1756, "pob_urbana_estimada": 10067, "point_source": "capital_distrital"}}, {"type": "Feature", "geometry": {"type": "Point", "coordinates": [-71.47694531299999, -14.164474608999967]}, "properties": {"ubigeo": "080508", "dep": "Cusco", "prov": "Canas", "dist": "Tupac Amaru", "pob_total_proyectada": 2556, "pob_dispersa": 1702, "pob_urbana_estimada": 854, "point_source": "capital_distrital"}}, {"type": "Feature", "geometry": {"type": "Point", "coordinates": [-74.76005707499996, -4.532481380999968]}, "properties": {"ubigeo": "160305", "dep": "Loreto", "prov": "Loreto", "dist": "Urarinas", "pob_total_proyectada": 14465, "pob_dispersa": 5216, "pob_urbana_estimada": 9249, "point_source": "capital_distrital"}}, {"type": "Feature", "geometry": {"type": "Point", "coordinates": [-71.62471060199994, -13.686621428999956]}, "properties": {"ubigeo": "081201", "dep": "Cusco", "prov": "Quispicanchi", "dist": "Urcos", "pob_total_proyectada": 12888, "pob_dispersa": 2082, "pob_urbana_estimada": 10806, "point_source": "capital_distrital"}}, {"type": "Feature", "geometry": {"type": "Point", "coordinates": [-72.13386684, -13.24417061]}, "properties": {"ubigeo": "081301", "dep": "Cusco", "prov": "Urubamba", "dist": "Urubamba", "pob_total_proyectada": 25828, "pob_dispersa": 850, "pob_urbana_estimada": 24978, "point_source": "centroide_distrito"}}, {"type": "Feature", "geometry": {"type": "Point", "coordinates": [-75.15690820299994, -6.908810546999973]}, "properties": {"ubigeo": "160606", "dep": "Loreto", "prov": "Ucayali", "dist": "Vargas Guerra", "pob_total_proyectada": 7332, "pob_dispersa": 661, "pob_urbana_estimada": 6671, "point_source": "capital_distrital"}}, {"type": "Feature", "geometry": {"type": "Point", "coordinates": [-80.68559165, -5.16830756]}, "properties": {"ubigeo": "200115", "dep": "Piura", "prov": "Piura", "dist": "Veintiseis de Octubre", "pob_total_proyectada": 214280, "pob_dispersa": 67, "pob_urbana_estimada": 214213, "point_source": "centroide_distrito"}}, {"type": "Feature", "geometry": {"type": "Point", "coordinates": [-71.88525372699996, -14.509307717999945]}, "properties": {"ubigeo": "080708", "dep": "Cusco", "prov": "Chumbivilcas", "dist": "Velille", "pob_total_proyectada": 8679, "pob_dispersa": 3534, "pob_urbana_estimada": 5145, "point_source": "capital_distrital"}}, {"type": "Feature", "geometry": {"type": "Point", "coordinates": [-80.77691621099996, -5.423447653999972]}, "properties": {"ubigeo": "200805", "dep": "Piura", "prov": "Sechura", "dist": "Vice", "pob_total_proyectada": 20117, "pob_dispersa": 111, "pob_urbana_estimada": 20006, "point_source": "capital_distrital"}}, {"type": "Feature", "geometry": {"type": "Point", "coordinates": [-81.07199999699998, -4.86510156199995]}, "properties": {"ubigeo": "200507", "dep": "Piura", "prov": "Paita", "dist": "Vichayal", "pob_total_proyectada": 6642, "pob_dispersa": 411, "pob_urbana_estimada": 6231, "point_source": "capital_distrital"}}, {"type": "Feature", "geometry": {"type": "Point", "coordinates": [-73.02049843, -13.0427161]}, "properties": {"ubigeo": "080909", "dep": "Cusco", "prov": "La Convencion", "dist": "Vilcabamba", "pob_total_proyectada": 9745, "pob_dispersa": 5775, "pob_urbana_estimada": 3970, "point_source": "centroide_distrito"}}, {"type": "Feature", "geometry": {"type": "Point", "coordinates": [-73.47798759, -12.91051598]}, "properties": {"ubigeo": "080913", "dep": "Cusco", "prov": "La Convencion", "dist": "Villa Kintiarina", "pob_total_proyectada": 2453, "pob_dispersa": 393, "pob_urbana_estimada": 2060, "point_source": "centroide_distrito"}}, {"type": "Feature", "geometry": {"type": "Point", "coordinates": [-73.35621448, -13.04856398]}, "properties": {"ubigeo": "080912", "dep": "Cusco", "prov": "La Convencion", "dist": "Villa Virgen", "pob_total_proyectada": 2523, "pob_dispersa": 661, "pob_urbana_estimada": 1862, "point_source": "centroide_distrito"}}, {"type": "Feature", "geometry": {"type": "Point", "coordinates": [-71.97103361099994, -13.525735044999976]}, "properties": {"ubigeo": "080108", "dep": "Cusco", "prov": "Cusco", "dist": "Wanchaq", "pob_total_proyectada": 61715, "pob_dispersa": 0, "pob_urbana_estimada": 61715, "point_source": "capital_distrital"}}, {"type": "Feature", "geometry": {"type": "Point", "coordinates": [-71.1009214, -2.81588592]}, "properties": {"ubigeo": "160804", "dep": "Loreto", "prov": "Putumayo", "dist": "Yaguas", "pob_total_proyectada": 1668, "pob_dispersa": 509, "pob_urbana_estimada": 1159, "point_source": "centroide_distrito"}}, {"type": "Feature", "geometry": {"type": "Point", "coordinates": [-79.74976271599996, -5.180950788999951]}, "properties": {"ubigeo": "200410", "dep": "Piura", "prov": "Morropon", "dist": "Yamango", "pob_total_proyectada": 8186, "pob_dispersa": 3767, "pob_urbana_estimada": 4419, "point_source": "capital_distrital"}}, {"type": "Feature", "geometry": {"type": "Point", "coordinates": [-71.42899414099998, -14.219447265999975]}, "properties": {"ubigeo": "080501", "dep": "Cusco", "prov": "Canas", "dist": "Yanaoca", "pob_total_proyectada": 9221, "pob_dispersa": 2949, "pob_urbana_estimada": 6272, "point_source": "capital_distrital"}}, {"type": "Feature", "geometry": {"type": "Point", "coordinates": [-72.27720117199993, -12.681617187999962]}, "properties": {"ubigeo": "080408", "dep": "Cusco", "prov": "Calca", "dist": "Yanatile", "pob_total_proyectada": 9016, "pob_dispersa": 4116, "pob_urbana_estimada": 4900, "point_source": "capital_distrital"}}, {"type": "Feature", "geometry": {"type": "Point", "coordinates": [-72.87684179699994, -5.148839843999951]}, "properties": {"ubigeo": "160511", "dep": "Loreto", "prov": "Requena", "dist": "Yaquerana", "pob_total_proyectada": 2151, "pob_dispersa": 519, "pob_urbana_estimada": 1632, "point_source": "capital_distrital"}}, {"type": "Feature", "geometry": {"type": "Point", "coordinates": [-71.91796478499998, -13.666449087999979]}, "properties": {"ubigeo": "081009", "dep": "Cusco", "prov": "Paruro", "dist": "Yaurisque", "pob_total_proyectada": 1800, "pob_dispersa": 1171, "pob_urbana_estimada": 629, "point_source": "capital_distrital"}}, {"type": "Feature", "geometry": {"type": "Point", "coordinates": [-70.20025032199999, -4.335986648999949]}, "properties": {"ubigeo": "160403", "dep": "Loreto", "prov": "Mariscal Ramon Castilla", "dist": "Yavari", "pob_total_proyectada": 6558, "pob_dispersa": 1706, "pob_urbana_estimada": 4852, "point_source": "capital_distrital"}}, {"type": "Feature", "geometry": {"type": "Point", "coordinates": [-72.07756248, -13.29188848]}, "properties": {"ubigeo": "081307", "dep": "Cusco", "prov": "Urubamba", "dist": "Yucay", "pob_total_proyectada": 3469, "pob_dispersa": 69, "pob_urbana_estimada": 3400, "point_source": "centroide_distrito"}}, {"type": "Feature", "geometry": {"type": "Point", "coordinates": [-76.10691015599997, -5.893939452999973]}, "properties": {"ubigeo": "160201", "dep": "Loreto", "prov": "Alto Amazonas", "dist": "Yurimaguas", "pob_total_proyectada": 117270, "pob_dispersa": 6003, "pob_urbana_estimada": 111267, "point_source": "capital_distrital"}}, {"type": "Feature", "geometry": {"type": "Point", "coordinates": [-72.23522631, -13.46873498]}, "properties": {"ubigeo": "080309", "dep": "Cusco", "prov": "Anta", "dist": "Zurite", "pob_total_proyectada": 3769, "pob_dispersa": 919, "pob_urbana_estimada": 2850, "point_source": "centroide_distrito"}}]}